LEGION 1                
1 59625U 24081A   24138.93472280  .00014523  00000+0  75422-3 0  9992
2 59625  97.5772 210.0441 0005078 113.4836 246.6931 15.16202510  2291
